[{"OBJECT_NAME":"OBJECT C","OBJECT_ID":"2024-153C","EPOCH":"2026-03-09T22:45:52.192800","MEAN_MOTION":15.36401606,"ECCENTRICITY":0.00103806,"INCLINATION":97.6622,"RA_OF_ASC_NODE":206.7519,"ARG_OF_PERICENTER":145.6814,"MEAN_ANOMALY":214.5102,"EPHEMERIS_TYPE":0,"CLASSIFICATION_TYPE":"U","NORAD_CAT_ID":60747,"ELEMENT_SET_NO":999,"REV_AT_EPOCH":8488,"BSTAR":0.0009101215,"MEAN_MOTION_DOT":0.00032382,"MEAN_MOTION_DDOT":0},{"OBJECT_NAME":"HJS-6C","OBJECT_ID":"2025-067C","EPOCH":"2026-03-09T22:46:43.472064","MEAN_MOTION":15.37673288,"ECCENTRICITY":0.00109563,"INCLINATION":54.9913,"RA_OF_ASC_NODE":108.3875,"ARG_OF_PERICENTER":78.2576,"MEAN_ANOMALY":281.968,"EPHEMERIS_TYPE":0,"CLASSIFICATION_TYPE":"U","NORAD_CAT_ID":63430,"ELEMENT_SET_NO":999,"REV_AT_EPOCH":5274,"BSTAR":0.000242496,"MEAN_MOTION_DOT":8.728e-5,"MEAN_MOTION_DDOT":0}]
